GLOBALSTAR M024         
1 25883U 99043A   25358.79613388 -.00000079  00000+0 -51794-3 0  9995
2 25883  52.0041 310.5414 0001962  42.6759 322.4036 11.10165773136034
GLOBALSTAR M027         
1 25884U 99043B   25358.30049072 -.00000072  00000+0 -33115-3 0  9996
2 25884  52.0236  35.0272 0021036 297.7185  62.1474 11.04372751162247
GLOBALSTAR M054         
1 25885U 99043C   25358.69046686 -.00000068  00000+0  95776-4 0  9993
2 25885  52.0119 129.4853 0005800 138.5184 234.4975 11.39224866140767
GLOBALSTAR M053         
1 25886U 99043D   25358.48008537 -.00000079  00000+0 -29066-3 0  9995
2 25886  51.9988  87.6428 0003578  60.8301  22.2567 11.27668815140911
GLOBALSTAR M058         
1 25907U 99049A   25358.63490086 -.00000109  00000+0 -32535-3 0  9995
2 25907  51.9965 320.6260 0001726 289.5772  70.4876 11.93206066564275
GLOBALSTAR M050         
1 25908U 99049B   25358.63521492  .00000030  00000+0  13395-2 0  9995
2 25908  52.0012 314.0725 0009569  50.6491 120.1138 12.07462309171191
GLOBALSTAR M033         
1 25909U 99049C   25358.78912382 -.00000036  00000+0  53307-3 0  9999
2 25909  51.9876 172.3172 0013166 299.0466  60.9062 12.20295061559010
GLOBALSTAR M055         
1 25910U 99049D   25358.66183685 -.00000092  00000+0  18461-4 0  9999
2 25910  51.9985 174.1466 0007439 157.8885 202.2289 12.29438458191710
